#aV2020  6 16  0  0  0.00000000     288 DD+AD WGS84 FIT  NGA
## 2110 172800.00000000   300.00000000 59016 0.0000000000000
+   32     1  2  3  4  5  6  7  8  9 10 11 12 13 14 15 16 17
+         18 19 20 21 22 23 24 25 26 27 28 29 30 31 32  0  0
+          0  0  0  0  0  0  0  0  0  0  0  0  0  0  0  0  0
+          0  0  0  0  0  0  0  0  0  0  0  0  0  0  0  0  0
+          0  0  0  0  0  0  0  0  0  0  0  0  0  0  0  0  0
++         2  2  2  2  2  2  2  2  2  2  2  2  2  2  2  2  2
++         2  2  2  2  2  2  2  2  2  2  2  2  2  2  2  0  0
++         0  0  0  0  0  0  0  0  0  0  0  0  0  0  0  0  0
++         0  0  0  0  0  0  0  0  0  0  0  0  0  0  0  0  0
++         0  0  0  0  0  0  0  0  0  0  0  0  0  0  0  0  0
%c cc cc ccc ccc cccc cccc cccc cccc ccccc ccccc ccccc ccccc
%c cc cc ccc ccc cccc cccc cccc cccc ccccc ccccc ccccc ccccc
%f  0.0000000  0.000000000  0.00000000000  0.000000000000000
%f  0.0000000  0.000000000  0.00000000000  0.000000000000000
%i    0    0    0    0      0      0      0      0         0
%i    0    0    0    0      0      0      0      0         0
/*      NGA, ST. LOUIS,MO.                                  
/*   EPHEMERIS COMPUTED FROM 2 DAYS OF DATA                 
/*   EPOCHA v5 SMOOTHER                                     
/*   G1762 IERS2010 SATAF SATAPC                            
*  2020  6 16 22  0  0.00000000
P  1  11040.845728  13831.746895 -20138.889792     10.288439                    
V  1 -24923.718936    -59.326178 -13532.891921      0.091544                    
P  2  12594.675962 -14099.547970  19275.773754   -473.207200                    
V  2  23199.378741    202.213974 -15582.068960     -0.059325                    
P  3  12016.613847  23722.636053  -1206.534292   -211.088236                    
V  3  -2947.019737    -43.873733 -31751.006853     -0.121635                    
P  4   5428.032670  16948.713508  19718.441603   -103.341148                    
V  4 -14716.596341  20277.218506 -13417.422624     -0.048005                    
P  5   2703.280825 -19714.180429  17355.714291    -14.787029                    
V  5  13079.733823  18305.724714  18801.812619     -0.007484                    
P  6  22992.981725  -7091.141932  11345.277185   -289.733924                    
V  6  14238.274244   2162.870971 -27585.205958     -0.058999                    
P  7  25012.330977   6291.704430   7651.310436   -306.075632                    
V  7  -9259.575956   2092.043951  29283.209662     -0.087691                    
P  8  -3828.086902  23113.469390 -12250.862589    -37.791789                    
V  8  -9913.299509  12332.974891  26591.135788     -0.013385                    
P  9  14261.371549   5991.319106  21543.918074   -237.536997                    
V  9 -13721.724946  23831.944679   2433.524148     -0.068367                    
P 10 -16738.482143   -918.445739 -20568.159176   -373.336324                    
V 10 -11967.035427 -23369.998942  10503.821972     -0.110967                    
P 11    770.662901  17326.109280 -20666.831795   -246.812017                    
V 11 -23195.842571  10124.079953   7485.460014      0.106798                    
P 12 -10181.305146 -24590.274387  -1503.889491    105.260039                    
V 12   2602.323182    577.163482 -31959.368457     -0.044686                    
P 13  12225.267446 -22606.082352  -6619.190729     18.910280                    
V 13   7151.422213  -4868.355609  30466.566897      0.032048                    
P 14 -18616.455282  17294.863280  -7038.922493     -5.381538                    
V 14   3187.677188  -9363.318929 -30129.669825      0.027262                    
P 15    432.999443 -23281.966162 -12738.276394   -223.788706                    
V 15   9752.854619 -12983.928618  25056.154673      0.026093                    
P 16  -2737.827051  20642.910028  16002.824691   -171.318400                    
V 16 -10074.407715 -18368.626282  22106.509788     -0.046526                    
P 17  19123.029462 -10438.101613 -14739.951188    281.844050                    
V 17  -9638.289022  16964.649475 -23885.165463      0.058764                    
P 18 -24717.140807  -6328.428659   7417.105406    222.048119                    
V 18   9532.647039  -2080.701462  29922.086162      0.106082                    
P 19  19503.384213 -15799.753610  -8936.497318   -144.272615                    
V 19  -5067.225621   9850.554853 -29500.795238      0.050832                    
P 20 -20340.741312 -11065.310959 -13284.098495    527.497244                    
V 20  -7752.011064 -15057.054821  24332.052223     -0.000797                    
P 21 -26339.691566   1535.316573   -531.489852     12.452297                    
V 21  -1720.076911  -3234.392978  31771.097159      0.047494                    
P 22   7874.024206  23760.216717  -8887.214019   -777.593772                    
V 22  -9203.559288  -7786.300949 -28154.987664      0.020153                    
P 23  18239.347522  -3216.230998  19576.855677   -105.177704                    
V 23 -10923.292181  21346.665363  13571.963128      0.032708                    
P 24  -9483.644777 -14609.503620 -20337.979236    -14.415054                    
V 24  25330.608214  -1937.654915 -10154.936824     -0.004963                    
P 25 -16488.392658 -19570.865810   7360.285458     13.752985                    
V 25  -2533.867358  -9547.711847 -29835.123167      0.037007                    
P 26 -11298.790717  11023.796409  21302.802148    226.658245                    
V 26 -14371.608182 -23112.565395   4550.468675      0.069997                    
P 27 -12073.684389  23317.210749  -2641.203256   -322.346947                    
V 27  -3832.847815   1420.587587  32117.189149     -0.098703                    
P 28  15530.745823    333.675196 -20940.252148    708.020676                    
V 28  10421.899302  25931.290889   8066.925711     -0.033644                    
P 29 -10548.218621 -10361.302327  22015.634490   -129.450172                    
V 29  16335.897010 -22737.515147  -2895.863150     -0.086659                    
P 30  26449.747022   -933.153441  -3312.826327   -243.131732                    
V 30   4054.766410   3530.936534  30741.857176     -0.079385                    
P 31 -22418.794106   7635.003362  12426.628504    -49.584057                    
V 31 -15560.479460  -2861.086578 -25779.405552     -0.025049                    
P 32 -18850.048838  11693.471945 -14412.561757    301.228695                    
V 32   7508.414533 -17087.614380 -23689.291670      0.068757                    
EOF
